{"type": "FeatureCollection", "crs": {"type": "name", "properties": {"name": "EPSG:2326"}}, "features": [{"type": "Feature", "id": 8660, "geometry": {"type": "Polygon", "coordinates": [[[839351.7102800012, 827981.732780002], [839349.913660001, 827984.1124600023], [839348.3174800007, 827982.9073800016], [839347.6094900006, 827983.8451400027], [839349.205670001, 827985.0502200015], [839344.4305300005, 827991.3750700019], [839337.9859700007, 827986.5095500015], [839337.8052100008, 827986.7489700019], [839315.1993700005, 827969.6820000019], [839316.5886500012, 827967.8418500014], [839314.092410001, 827967.3088800013], [839313.4077700004, 827970.5155500025], [839307.1243000012, 827972.5508600026], [839306.9363849112, 827972.5953937606], [839306.7437595512, 827972.6092070632], [839306.5514128344, 827972.591942152], [839306.3643264571, 827972.5440461806], [839306.1873458753, 827972.466759634], [839306.0250548092, 827972.3620841999], [839305.8816565267, 827972.232730927], [839305.7608649813, 827972.0820500085], [839305.6658086214, 827971.9139440148], [839305.5989493656, 827971.7327668184], [839305.5620188393, 827971.5432108296], [839305.5559735273, 827971.3501854665], [839305.5809700005, 827971.1586900018], [839307.9805400008, 827959.9198500011], [839307.6871500006, 827959.857210001], [839316.086170001, 827920.5188400019], [839324.1298700012, 827922.2362300027], [839323.712270001, 827924.1921500023], [839325.3503500009, 827924.5418900009], [839324.8648900008, 827926.8156400025], [839329.6324400008, 827927.8335400019], [839329.0164700011, 827930.7185200024], [839326.9138600007, 827930.2696000021], [839326.7677000007, 827930.9541700017], [839331.5841500005, 827931.9825100023], [839328.5238100011, 827946.3161700014], [839326.9592300011, 827953.6441700011], [839334.8818200007, 827962.4592000023], [839339.2936200006, 827967.367970001], [839346.4795500012, 827975.3633600026], [839346.2096000006, 827975.6059200019], [839343.1546000009, 827978.3516900018], [839345.9801700013, 827980.4849400017], [839347.5015900005, 827978.4697600026], [839347.7609700011, 827978.6655900013], [839351.4894800009, 827981.4805500023], [839351.751410001, 827981.6783000026], [839351.7102800012, 827981.732780002]]]}, "properties": {"OBJECTID": 8660, "Shape__Length": 219.16045438377125, "Shape__Area": 1316.3164964109737, "GeoRefNo": "3932927929", "DateCreate": 1353945600000, "BuildingBlockType": "Tower", "BuildingCSUID": "3932927929T20121127", "BuildingID": 1810092614, "Status": "Active", "BuildingNameEN": "COURTYARD BY MARRIOTT HONG KONG SHA TIN", "BuildingNameTC": "香港沙田萬怡酒店", "BaseHeight": 21.8, "TopHeight": 104.5, "Storeys": 23, "StoreysInBasement": null, "DateStamp": 1599580800000}}, {"type": "Feature", "id": 8661, "geometry": {"type": "Polygon", "coordinates": [[[839328.5238100011, 827946.3161700014], [839328.5296400012, 827946.322660001], [839339.3905200008, 827958.4069700018], [839339.2417700011, 827958.5406600013], [839335.1771600004, 827962.193760002], [839334.8818200007, 827962.4592000023], [839326.9592300011, 827953.6441700011], [839328.5238100011, 827946.3161700014]]]}, "properties": {"OBJECTID": 8661, "Shape__Length": 41.66382060051474, "Shape__Area": 85.1983585854929, "GeoRefNo": "3933327956", "DateCreate": 1354464000000, "BuildingBlockType": "Tower", "BuildingCSUID": "3933327956T20121203", "BuildingID": 1810092870, "Status": "Active", "BuildingNameEN": "COURTYARD BY MARRIOTT HONG KONG SHA TIN", "BuildingNameTC": "香港沙田萬怡酒店", "BaseHeight": 21.8, "TopHeight": 25.8, "Storeys": null, "StoreysInBasement": null, "DateStamp": 1354464000000}}, {"type": "Feature", "id": 8662, "geometry": {"type": "Polygon", "coordinates": [[[839369.7743700007, 827976.6551400013], [839369.7780900011, 827976.6592800021], [839369.7861600006, 827976.6682600025], [839370.3448461703, 827977.338879738], [839370.8537344062, 827978.0480298131], [839371.3101766568, 827978.7920200936], [839371.7117977787, 827979.5669791508], [839372.0565078956, 827980.3688744064], [839372.3425132735, 827981.1935331174], [839372.5683256544, 827982.0366640885], [839372.7327700006, 827982.8938800022], [839359.9811300011, 827994.3545400016], [839351.1260100007, 827984.5019400027], [839352.6697700005, 827982.4571800027], [839351.7102800012, 827981.732780002], [839351.751410001, 827981.6783000026], [839351.4894800009, 827981.4805500023], [839351.3686900008, 827981.3461500015], [839346.2096000006, 827975.6059200019], [839346.4795500012, 827975.3633600026], [839339.2936200006, 827967.367970001], [839339.5889600012, 827967.1025300026], [839351.5373500008, 827956.3638000023], [839369.7743700007, 827976.6551400013]]]}, "properties": {"OBJECTID": 8662, "Shape__Length": 104.31092096865316, "Shape__Area": 592.9730552377472, "GeoRefNo": "3935627976", "DateCreate": 1354464000000, "BuildingBlockType": "Tower", "BuildingCSUID": "3935627976T20121203", "BuildingID": 1810092872, "Status": "Active", "BuildingNameEN": "COURTYARD BY MARRIOTT HONG KONG SHA TIN", "BuildingNameTC": "香港沙田萬怡酒店", "BaseHeight": 21.8, "TopHeight": 25.8, "Storeys": null, "StoreysInBasement": null, "DateStamp": 1354464000000}}, {"type": "Feature", "id": 22184, "geometry": {"type": "Polygon", "coordinates": [[[839428.9920000006, 828260.421000002], [839431.4930000007, 828263.2860000022], [839430.0960000008, 828264.3830000013], [839427.6450000005, 828261.6180000026], [839428.9920000006, 828260.421000002]]]}, "properties": {"OBJECTID": 22184, "Shape__Length": 11.076241750166654, "Shape__Area": 6.702151999210709, "GeoRefNo": "3942928262", "DateCreate": 1114790400000, "BuildingBlockType": "Tower", "BuildingCSUID": "3942928262T20050430", "BuildingID": 1102443763, "Status": "Active", "BuildingNameEN": null, "BuildingNameTC": null, "BaseHeight": 6.4, "TopHeight": 9.9, "Storeys": null, "StoreysInBasement": null, "DateStamp": 1358956800000}}, {"type": "Feature", "id": 25017, "geometry": {"type": "Polygon", "coordinates": [[[839563.5813000007, 828112.1937000025], [839561.7887000004, 828119.0211000014], [839560.1703900006, 828118.5792000014], [839560.1982500004, 828118.4858400021], [839561.7091500005, 828112.6523400024], [839561.9386400012, 828111.7978200018], [839563.5813000007, 828112.1937000025]]]}, "properties": {"OBJECTID": 25017, "Shape__Length": 17.434275798173648, "Shape__Area": 11.852153166362404, "GeoRefNo": "3956228115", "DateCreate": 1430928000000, "BuildingBlockType": "Open-sided Structure", "BuildingCSUID": "3956228115T20150507", "BuildingID": 1810142021, "Status": "Active", "BuildingNameEN": null, "BuildingNameTC": null, "BaseHeight": 6.5, "TopHeight": 9.4, "Storeys": null, "StoreysInBasement": null, "DateStamp": 1431532800000}}, {"type": "Feature", "id": 25020, "geometry": {"type": "Polygon", "coordinates": [[[839531.7695000004, 828098.9893000014], [839529.9839000013, 828105.9573000018], [839529.7203000011, 828105.8765000012], [839524.9959000004, 828104.7100000009], [839524.537800001, 828104.4543000013], [839530.3864000011, 828098.7385000009], [839531.7695000004, 828098.9893000014]]]}, "properties": {"OBJECTID": 25020, "Shape__Length": 22.443225512619847, "Shape__Area": 25.31716740448177, "GeoRefNo": "3952828103", "DateCreate": 1431532800000, "BuildingBlockType": "Open-sided Structure", "BuildingCSUID": "3952828103T20150514", "BuildingID": 1810142227, "Status": "Active", "BuildingNameEN": null, "BuildingNameTC": null, "BaseHeight": 6.7, "TopHeight": 9.5, "Storeys": null, "StoreysInBasement": null, "DateStamp": 1431878400000}}, {"type": "Feature", "id": 53788, "geometry": {"type": "Polygon", "coordinates": [[[839574.336000001, 828383.5070000011], [839579.4857400004, 828389.4984400012], [839574.7170000011, 828393.6440000013], [839569.4840000011, 828387.7390000019], [839574.336000001, 828383.5070000011]]]}, "properties": {"OBJECTID": 53788, "Shape__Length": 28.547578526316382, "Shape__Area": 50.358645866968516, "GeoRefNo": "3957528389", "DateCreate": 1114790400000, "BuildingBlockType": "Tower", "BuildingCSUID": "3957528389T20050430", "BuildingID": 1102443643, "Status": "Active", "BuildingNameEN": null, "BuildingNameTC": null, "BaseHeight": 5.5, "TopHeight": 17, "Storeys": null, "StoreysInBasement": null, "DateStamp": 1358956800000}}, {"type": "Feature", "id": 53960, "geometry": {"type": "Polygon", "coordinates": [[[839494.290000001, 828294.1130000018], [839499.9510700004, 828300.3813300021], [839495.4600000009, 828304.3280000016], [839493.9540000008, 828302.6290000025], [839492.3800000008, 828304.0050000027], [839489.955000001, 828301.2910000011], [839491.5300000012, 828299.8900000025], [839489.8160000006, 828298.012000002], [839491.6830000011, 828296.3850000016], [839494.290000001, 828294.1130000018]]]}, "properties": {"OBJECTID": 53960, "Shape__Length": 33.01074097559262, "Shape__Area": 57.92816997457061, "GeoRefNo": "3949428301", "DateCreate": 1114790400000, "BuildingBlockType": "Tower", "BuildingCSUID": "3949428301T20050430", "BuildingID": 1102443729, "Status": "Active", "BuildingNameEN": null, "BuildingNameTC": null, "BaseHeight": 6.5, "TopHeight": 18, "Storeys": null, "StoreysInBasement": null, "DateStamp": 1358956800000}}, {"type": "Feature", "id": 54048, "geometry": {"type": "Polygon", "coordinates": [[[839422.074000001, 828252.6100000013], [839426.6690000007, 828257.8850000016], [839425.4240000006, 828258.9300000016], [839420.779000001, 828253.7060000021], [839422.074000001, 828252.6100000013]]]}, "properties": {"OBJECTID": 54048, "Shape__Length": 17.308100700804676, "Shape__Area": 11.612575001370347, "GeoRefNo": "3942428257", "DateCreate": 1114790400000, "BuildingBlockType": "Tower", "BuildingCSUID": "3942428257T20050430", "BuildingID": 1102443774, "Status": "Active", "BuildingNameEN": null, "BuildingNameTC": null, "BaseHeight": 6.4, "TopHeight": 10, "Storeys": null, "StoreysInBasement": null, "DateStamp": 1358956800000}}, {"type": "Feature", "id": 68273, "geometry": {"type": "Polygon", "coordinates": [[[839127.1170000006, 827974.563000001], [839128.6530000009, 827976.1800000016], [839130.1430000011, 827974.7970000021], [839132.0110000009, 827976.6900000013], [839124.7640000004, 827983.222000001], [839126.4280000012, 827985.0410000011], [839133.6000000006, 827978.535000002], [839135.290000001, 827980.3540000021], [839133.6470000008, 827981.7380000018], [839135.0820000004, 827983.3550000023], [839129.5010000011, 827988.4010000024], [839134.6500000004, 827994.1610000022], [839133.0840000007, 827995.5190000013], [839134.1590000009, 827996.6810000017], [839132.2150000008, 827998.4480000027], [839126.0680000009, 827991.7040000018], [839124.3260000013, 827993.2660000026], [839130.472000001, 828000.0360000022], [839127.9460000005, 828002.1640000027], [839126.8460000008, 828001.1040000021], [839125.5080000004, 828002.3840000015], [839120.4120000005, 827996.7760000024], [839115.0080000004, 828001.6680000015], [839113.5480000004, 828000.1280000024], [839111.932000001, 828001.5880000014], [839110.0890000006, 827999.6690000016], [839117.2860000012, 827993.2390000019], [839115.5960000008, 827991.3950000014], [839108.5520000011, 827997.8490000013], [839106.6830000011, 827995.9300000016], [839108.3750000009, 827994.4690000024], [839106.864000001, 827992.8020000011], [839112.3180000009, 827987.8330000024], [839107.3500000006, 827982.3510000017], [839108.8150000004, 827981.0700000022], [839107.6630000006, 827979.8830000013], [839110.2380000008, 827977.5270000026], [839116.2320000008, 827984.2980000023], [839118.0760000013, 827982.7090000026], [839114.2090000007, 827978.4400000013], [839116.1290000007, 827976.7490000017], [839116.9740000004, 827977.6840000022], [839118.489000001, 827976.3010000009], [839121.5360000012, 827979.6100000013], [839127.1170000006, 827974.563000001]]]}, "properties": {"OBJECTID": 68273, "Shape__Length": 192.138233370829, "Shape__Area": 466.2872560009277, "GeoRefNo": "3912127988", "DateCreate": 1114790400000, "BuildingBlockType": "Tower", "BuildingCSUID": "3912127988T20050430", "BuildingID": 1102444124, "Status": "Active", "BuildingNameEN": "Ravana Garden Block 1", "BuildingNameTC": "濱景花園第１座", "BaseHeight": 13.8, "TopHeight": 104.7, "Storeys": 30, "StoreysInBasement": null, "DateStamp": 1599580800000}}, {"type": "Feature", "id": 68276, "geometry": {"type": "Polygon", "coordinates": [[[839442.6052200012, 828049.8993300013], [839440.0202700011, 828047.195340002], [839440.9839100009, 828046.3999100011], [839444.4701800011, 828050.2855100017], [839443.2346600005, 828050.3302800022], [839442.6052200012, 828049.8993300013]]]}, "properties": {"OBJECTID": 68276, "Shape__Length": 12.2098211601745, "Shape__Area": 5.561303952165532, "GeoRefNo": "3944228048", "DateCreate": 1200585600000, "BuildingBlockType": "Tower", "BuildingCSUID": "3944228048T20080118", "BuildingID": 1102444036, "Status": "Active", "BuildingNameEN": "SHEK MUN PLAYGROUND", "BuildingNameTC": "石門遊樂場", "BaseHeight": 6, "TopHeight": 7.9, "Storeys": null, "StoreysInBasement": null, "DateStamp": 1286294400000}}, {"type": "Feature", "id": 68740, "geometry": {"type": "Polygon", "coordinates": [[[839142.3210000005, 828008.1400000025], [839147.5710000005, 828013.9760000017], [839153.2030000007, 828008.904000001], [839154.688000001, 828010.5200000014], [839156.2030000007, 828009.086000001], [839158.0720000006, 828011.0560000017], [839150.7980000004, 828017.512000002], [839152.438000001, 828019.4070000015], [839159.5580000011, 828012.876000002], [839161.3250000011, 828014.745000001], [839159.6840000004, 828016.2050000019], [839161.1430000011, 828017.7460000012], [839155.4870000007, 828022.9200000018], [839160.6340000005, 828028.5530000012], [839159.120000001, 828029.9870000016], [839160.1950000012, 828031.1490000021], [839158.1740000006, 828032.8910000026], [839152.0280000009, 828026.0960000027], [839150.3100000005, 828027.6070000026], [839156.4830000009, 828034.4540000018], [839154.0330000008, 828036.6820000019], [839152.881000001, 828035.3940000013], [839151.4410000006, 828036.6740000024], [839146.370000001, 828031.0660000015], [839140.915000001, 828035.9590000026], [839139.4560000012, 828034.342000002], [839137.7890000008, 828035.904000001], [839136.0730000008, 828033.9840000011], [839143.245000001, 828027.529000001], [839141.631000001, 828025.7350000013], [839134.4600000009, 828032.2160000019], [839132.6670000004, 828030.2460000012], [839134.4090000009, 828028.6580000017], [839132.9750000006, 828027.0660000015], [839138.353000001, 828022.1480000019], [839133.2310000006, 828016.4640000015], [839134.6700000009, 828015.183000002], [839133.7480000006, 828014.097000001], [839136.097000001, 828011.9960000012], [839142.2430000007, 828018.7410000023], [839143.9850000013, 828017.1780000012], [839137.864000001, 828010.3570000026], [839139.9090000009, 828008.512000002], [839140.8310000012, 828009.5480000023], [839142.3210000005, 828008.1400000025]]]}, "properties": {"OBJECTID": 68740, "Shape__Length": 199.55802359061664, "Shape__Area": 482.9971445078397, "GeoRefNo": "3914728022", "DateCreate": 1114790400000, "BuildingBlockType": "Tower", "BuildingCSUID": "3914728022T20050430", "BuildingID": 1102444066, "Status": "Active", "BuildingNameEN": "Ravana Garden Block 2", "BuildingNameTC": "濱景花園第２座", "BaseHeight": 13.8, "TopHeight": 104.9, "Storeys": 30, "StoreysInBasement": null, "DateStamp": 1599580800000}}, {"type": "Feature", "id": 68748, "geometry": {"type": "Polygon", "coordinates": [[[839230.2150000008, 828032.2930000015], [839233.0310000004, 828035.2730000019], [839228.3100000005, 828039.6780000012], [839225.4670000011, 828036.5200000014], [839230.2150000008, 828032.2930000015]]]}, "properties": {"OBJECTID": 68748, "Shape__Length": 21.163112066291166, "Shape__Area": 26.74230249692941, "GeoRefNo": "3922928036", "DateCreate": 1114790400000, "BuildingBlockType": "Tower", "BuildingCSUID": "3922928036T20050430", "BuildingID": 1102444057, "Status": "Active", "BuildingNameEN": null, "BuildingNameTC": null, "BaseHeight": 13.8, "TopHeight": 16.9, "Storeys": null, "StoreysInBasement": null, "DateStamp": 1286294400000}}, {"type": "Feature", "id": 68749, "geometry": {"type": "Polygon", "coordinates": [[[839192.7930000005, 827990.5320000015], [839206.4190000007, 828005.6130000018], [839200.1320000011, 828011.376000002], [839186.506000001, 827996.2950000018], [839192.7930000005, 827990.5320000015]]]}, "properties": {"OBJECTID": 68749, "Shape__Length": 57.707319777657005, "Shape__Area": 173.34088499924425, "GeoRefNo": "3919628001", "DateCreate": 1114790400000, "BuildingBlockType": "Tower", "BuildingCSUID": "3919628001T20050430", "BuildingID": 1102444110, "Status": "Active", "BuildingNameEN": null, "BuildingNameTC": null, "BaseHeight": 13.8, "TopHeight": 22.6, "Storeys": null, "StoreysInBasement": null, "DateStamp": 1286294400000}}, {"type": "Feature", "id": 70944, "geometry": {"type": "Polygon", "coordinates": [[[839305.9370000008, 828200.0000000019], [839311.2810000004, 828205.8380000014], [839316.4120000005, 828201.3010000009], [839315.3440000005, 828200.0000000019], [839311.5380000006, 828195.3600000013], [839316.4110000012, 828190.8780000024], [839324.8340000007, 828200.0000000019], [839332.0320000006, 828207.7950000018], [839326.8250000011, 828212.433000002], [839321.4650000008, 828206.728000002], [839316.2840000009, 828211.4170000013], [839321.7710000006, 828217.4270000011], [839315.091000001, 828223.4930000026], [839310.3180000009, 828218.2950000018], [839309.1970000006, 828217.7890000027], [839307.5620900011, 828216.9552700017], [839306.3887100006, 828215.6639900021], [839305.472000001, 828214.3670000024], [839304.4480000008, 828211.7260000017], [839298.9600000009, 828205.7420000024], [839305.540000001, 828200.0000000019], [839305.7610000009, 828199.808000002], [839305.9370000008, 828200.0000000019]]]}, "properties": {"OBJECTID": 70944, "Shape__Length": 124.73869488015222, "Shape__Area": 434.09878031066796, "GeoRefNo": "3931628207", "DateCreate": 1114790400000, "BuildingBlockType": "Tower", "BuildingCSUID": "3931628207T20050430", "BuildingID": 1102443801, "Status": "Active", "BuildingNameEN": "Garden Vista Block A", "BuildingNameTC": "翠湖花園Ａ座", "BaseHeight": 9.5, "TopHeight": 72.5, "Storeys": 23, "StoreysInBasement": null, "DateStamp": 1599580800000}}, {"type": "Feature", "id": 70999, "geometry": {"type": "Polygon", "coordinates": [[[839471.1300000008, 828429.7300000023], [839472.5700000012, 828428.4400000013], [839475.9300000006, 828432.1300000027], [839472.2000000011, 828435.5200000014], [839468.830000001, 828431.870000001], [839471.1300000008, 828429.7300000023]]]}, "properties": {"OBJECTID": 70999, "Shape__Length": 20.073640103359388, "Shape__Area": 25.239399997796305, "GeoRefNo": "3947228432", "DateCreate": 1195142400000, "BuildingBlockType": "Open-sided Structure", "BuildingCSUID": "3947228432T20071116", "BuildingID": 1102443590, "Status": "Active", "BuildingNameEN": null, "BuildingNameTC": null, "BaseHeight": null, "TopHeight": null, "Storeys": null, "StoreysInBasement": null, "DateStamp": 1286294400000}}, {"type": "Feature", "id": 71042, "geometry": {"type": "Polygon", "coordinates": [[[839288.2700000005, 828203.410000002], [839295.0598900011, 828210.8048400022], [839291.2000000011, 828214.1700000018], [839284.540000001, 828206.7300000023], [839288.2700000005, 828203.410000002]]]}, "properties": {"OBJECTID": 71042, "Shape__Length": 30.13905640438424, "Shape__Area": 50.62736759828606, "GeoRefNo": "3928928208", "DateCreate": 1195142400000, "BuildingBlockType": "Open-sided Structure", "BuildingCSUID": "3928928208T20071116", "BuildingID": 1102443818, "Status": "Active", "BuildingNameEN": null, "BuildingNameTC": null, "BaseHeight": null, "TopHeight": null, "Storeys": null, "StoreysInBasement": null, "DateStamp": 1286294400000}}, {"type": "Feature", "id": 71643, "geometry": {"type": "Polygon", "coordinates": [[[839398.7800000012, 828353.2100000009], [839395.3377800006, 828349.4953100011], [839399.1100000013, 828346.1100000013], [839402.5212000012, 828349.8733900022], [839401.0100000007, 828351.1800000016], [839398.7800000012, 828353.2100000009]]]}, "properties": {"OBJECTID": 71643, "Shape__Length": 20.225533173555196, "Shape__Area": 25.48652634994849, "GeoRefNo": "3939928349", "DateCreate": 1195142400000, "BuildingBlockType": "Open-sided Structure", "BuildingCSUID": "3939928349T20071116", "BuildingID": 1102443693, "Status": "Active", "BuildingNameEN": null, "BuildingNameTC": null, "BaseHeight": null, "TopHeight": null, "Storeys": null, "StoreysInBasement": null, "DateStamp": 1286294400000}}, {"type": "Feature", "id": 71656, "geometry": {"type": "Polygon", "coordinates": [[[839404.2300000004, 828354.7700000014], [839405.7727400009, 828353.4253500011], [839409.1600000011, 828357.3000000026], [839405.332630001, 828360.538850002], [839402.120000001, 828356.8500000015], [839404.2300000004, 828354.7700000014]]]}, "properties": {"OBJECTID": 71656, "Shape__Length": 20.061402904000364, "Shape__Area": 25.324388604078752, "GeoRefNo": "3940528357", "DateCreate": 1195142400000, "BuildingBlockType": "Open-sided Structure", "BuildingCSUID": "3940528357T20071116", "BuildingID": 1102443684, "Status": "Active", "BuildingNameEN": null, "BuildingNameTC": null, "BaseHeight": null, "TopHeight": null, "Storeys": null, "StoreysInBasement": null, "DateStamp": 1286294400000}}, {"type": "Feature", "id": 71658, "geometry": {"type": "Polygon", "coordinates": [[[839402.120000001, 828356.8500000015], [839400.5700000012, 828358.2400000021], [839397.2500000009, 828354.5200000014], [839398.7800000012, 828353.2100000009], [839401.0100000007, 828351.1800000016], [839404.2300000004, 828354.7700000014], [839402.120000001, 828356.8500000015]]]}, "properties": {"OBJECTID": 71658, "Shape__Length": 19.883175900033343, "Shape__Area": 24.747650000207496, "GeoRefNo": "3940028354", "DateCreate": 1195142400000, "BuildingBlockType": "Open-sided Structure", "BuildingCSUID": "3940028354T20071116", "BuildingID": 1102443687, "Status": "Active", "BuildingNameEN": null, "BuildingNameTC": null, "BaseHeight": null, "TopHeight": null, "Storeys": null, "StoreysInBasement": null, "DateStamp": 1286294400000}}, {"type": "Feature", "id": 71659, "geometry": {"type": "Polygon", "coordinates": [[[839432.1848800005, 828388.9796400014], [839428.7426600009, 828385.2649500016], [839432.5148800006, 828381.8796400018], [839435.9260800006, 828385.6430300027], [839434.414880001, 828386.9496400021], [839432.1848800005, 828388.9796400014]]]}, "properties": {"OBJECTID": 71659, "Shape__Length": 20.225533172213247, "Shape__Area": 25.486526348196026, "GeoRefNo": "3943228385", "DateCreate": 1195142400000, "BuildingBlockType": "Open-sided Structure", "BuildingCSUID": "3943228385T20071116", "BuildingID": 1102443649, "Status": "Active", "BuildingNameEN": null, "BuildingNameTC": null, "BaseHeight": null, "TopHeight": null, "Storeys": null, "StoreysInBasement": null, "DateStamp": 1286294400000}}, {"type": "Feature", "id": 71660, "geometry": {"type": "Polygon", "coordinates": [[[839434.414880001, 828386.9496400021], [839437.656320001, 828390.563550001], [839435.5248800004, 828392.619640002], [839433.9748800006, 828394.0096400026], [839430.6548800012, 828390.289640002], [839432.1848800005, 828388.9796400014], [839434.414880001, 828386.9496400021]]]}, "properties": {"OBJECTID": 71660, "Shape__Length": 19.91394754883101, "Shape__Area": 24.795162352536053, "GeoRefNo": "3943428390", "DateCreate": 1195142400000, "BuildingBlockType": "Open-sided Structure", "BuildingCSUID": "3943428390T20071116", "BuildingID": 1102443642, "Status": "Active", "BuildingNameEN": null, "BuildingNameTC": null, "BaseHeight": null, "TopHeight": null, "Storeys": null, "StoreysInBasement": null, "DateStamp": 1286294400000}}, {"type": "Feature", "id": 71836, "geometry": {"type": "Polygon", "coordinates": [[[839468.830000001, 828431.870000001], [839467.3000000007, 828433.1000000015], [839466.7733500004, 828432.503130002], [839464.5027600005, 828429.9297900014], [839464.0000000009, 828429.3600000013], [839467.830000001, 828426.0600000024], [839469.5990100009, 828428.027350001], [839470.6372300005, 828429.1819800027], [839471.1300000008, 828429.7300000023], [839468.830000001, 828431.870000001]]]}, "properties": {"OBJECTID": 71836, "Shape__Length": 20.083501420386956, "Shape__Area": 25.418248527427277, "GeoRefNo": "3946728429", "DateCreate": 1195142400000, "BuildingBlockType": "Open-sided Structure", "BuildingCSUID": "3946728429T20071116", "BuildingID": 1102443593, "Status": "Active", "BuildingNameEN": null, "BuildingNameTC": null, "BaseHeight": null, "TopHeight": null, "Storeys": null, "StoreysInBasement": null, "DateStamp": 1286294400000}}, {"type": "Feature", "id": 72191, "geometry": {"type": "Polygon", "coordinates": [[[839210.9460000005, 828114.5830000024], [839227.8670000006, 828099.5190000013], [839227.8726500012, 828099.525390001], [839236.2640000004, 828109.0170000009], [839219.6429900005, 828124.0674300026], [839219.6280000005, 828124.0810000021], [839210.9460000005, 828114.5830000024]]]}, "properties": {"OBJECTID": 72191, "Shape__Length": 70.64347267940653, "Shape__Area": 288.001253867781, "GeoRefNo": "3922328111", "DateCreate": 1114790400000, "BuildingBlockType": "Tower", "BuildingCSUID": "3922328111T20050430", "BuildingID": 1102443927, "Status": "Active", "BuildingNameEN": "LEUNG KUI KAU LUTHERAN PRIMARY SCHOOL", "BuildingNameTC": "路德會梁鉅鏐小學", "BaseHeight": 5.2, "TopHeight": 16.1, "Storeys": null, "StoreysInBasement": null, "DateStamp": 1286294400000}}, {"type": "Feature", "id": 72193, "geometry": {"type": "Polygon", "coordinates": [[[839236.2640000004, 828109.0170000009], [839249.9800000004, 828096.5960000027], [839249.6210000012, 828096.1410000026], [839248.199000001, 828096.2520000022], [839247.6440000013, 828096.7650000025], [839228.0240000011, 828074.9880000018], [839229.0850000009, 828074.040000001], [839229.0770000005, 828072.9220000021], [839228.4630000005, 828072.2650000025], [839239.4980000006, 828062.2750000022], [839240.0090000005, 828062.7550000027], [839241.2550000008, 828062.7970000021], [839242.1890000012, 828061.9260000009], [839261.9110000012, 828083.8800000027], [839261.4050000012, 828084.2390000019], [839261.1610000012, 828085.665000001], [839261.4690000005, 828085.9930000026], [839267.0760000013, 828081.1240000017], [839274.5310000004, 828089.6400000025], [839226.7530000005, 828132.7000000011], [839224.807000001, 828130.5780000016], [839222.1300000008, 828132.961000001], [839208.0430000005, 828117.2980000023], [839210.9460000005, 828114.5830000024], [839219.6280000005, 828124.0810000021], [839219.6429900005, 828124.0674300026], [839236.2640000004, 828109.0170000009]]]}, "properties": {"OBJECTID": 72193, "Shape__Length": 254.03446134949988, "Shape__Area": 1420.689519566321, "GeoRefNo": "3924828107", "DateCreate": 1114790400000, "BuildingBlockType": "Tower", "BuildingCSUID": "3924828107T20050430", "BuildingID": 1102443918, "Status": "Active", "BuildingNameEN": "LEUNG KUI KAU LUTHERAN PRIMARY SCHOOL", "BuildingNameTC": "路德會梁鉅鏐小學", "BaseHeight": 5.2, "TopHeight": 33.7, "Storeys": null, "StoreysInBasement": null, "DateStamp": 1286294400000}}, {"type": "Feature", "id": 72203, "geometry": {"type": "Polygon", "coordinates": [[[839252.7360700006, 828217.7627600022], [839254.6811300004, 828216.0143000018], [839260.2354900008, 828222.1858100016], [839258.2516200012, 828223.8756100014], [839252.7360700006, 828217.7627600022]]]}, "properties": {"OBJECTID": 72203, "Shape__Length": 21.757675289535335, "Shape__Area": 21.581404821662133, "GeoRefNo": "3925628219", "DateCreate": 1195142400000, "BuildingBlockType": "Open-sided Structure", "BuildingCSUID": "3925628219T20071116", "BuildingID": 1102443800, "Status": "Active", "BuildingNameEN": null, "BuildingNameTC": null, "BaseHeight": null, "TopHeight": null, "Storeys": null, "StoreysInBasement": null, "DateStamp": 1286294400000}}, {"type": "Feature", "id": 72700, "geometry": {"type": "Polygon", "coordinates": [[[839651.1155700004, 827893.4103200026], [839652.040000001, 827894.370000001], [839650.0500000007, 827898.790000001], [839650.620000001, 827899.4500000011], [839646.8000000007, 827907.9400000013], [839645.4200000009, 827907.3100000024], [839645.6260200012, 827907.045880001], [839646.1113900011, 827906.2881700024], [839646.5446000006, 827905.4994900022], [839646.8034500005, 827904.9582500011], [839647.1454800004, 827904.1259600017], [839647.3420000011, 827903.5591100026], [839647.5885500005, 827902.6937200017], [839647.7202600008, 827902.1084100027], [839647.8255400006, 827901.5177700017], [839647.9334500004, 827900.6244300026], [839647.9718300011, 827900.0257100016], [839647.9788700007, 827899.1259100027], [839647.9498700006, 827898.5266600009], [839647.8559600012, 827897.631740002], [839647.7599400012, 827897.0395300016], [839647.6378600011, 827896.5008700024], [839649.0103200013, 827895.2844400015], [839651.1155700004, 827893.4103200026]]]}, "properties": {"OBJECTID": 72700, "Shape__Length": 33.9169655862078, "Shape__Area": 28.320898324108466, "GeoRefNo": "3964927899", "DateCreate": 1114790400000, "BuildingBlockType": "Tower", "BuildingCSUID": "3964927899T20050430", "BuildingID": 1102444308, "Status": "Active", "BuildingNameEN": "DELTA HSE", "BuildingNameTC": "匯達大廈", "BaseHeight": 7.1, "TopHeight": 9.8, "Storeys": null, "StoreysInBasement": null, "DateStamp": 1286294400000}}, {"type": "Feature", "id": 83125, "geometry": {"type": "Polygon", "coordinates": [[[839540.3449000008, 828119.975300001], [839538.4215200013, 828121.605010001], [839536.7643000009, 828119.6489500012], [839538.6803400004, 828118.0255200025], [839540.3449000008, 828119.975300001]]]}, "properties": {"OBJECTID": 83125, "Shape__Length": 10.159670154155373, "Shape__Area": 6.450593897658791, "GeoRefNo": "3953928120", "DateCreate": 1430150400000, "BuildingBlockType": "Temporary Structure", "BuildingCSUID": "3953928120T20150428", "BuildingID": 1810141612, "Status": "Active", "BuildingNameEN": null, "BuildingNameTC": null, "BaseHeight": 6.2, "TopHeight": 12, "Storeys": null, "StoreysInBasement": null, "DateStamp": 1446393600000}}, {"type": "Feature", "id": 83167, "geometry": {"type": "Polygon", "coordinates": [[[839536.7643000009, 828119.6489500012], [839538.4215200013, 828121.605010001], [839538.6452000011, 828121.8690000027], [839534.778570001, 828125.2909700014], [839526.8942000009, 828116.0816000011], [839530.5698000006, 828112.8436000012], [839536.7643000009, 828119.6489500012]]]}, "properties": {"OBJECTID": 83167, "Shape__Length": 34.29732779372043, "Shape__Area": 61.431542147871355, "GeoRefNo": "3953328119", "DateCreate": 1430150400000, "BuildingBlockType": "Temporary Structure", "BuildingCSUID": "3953328119T20150428", "BuildingID": 1810141613, "Status": "Active", "BuildingNameEN": null, "BuildingNameTC": null, "BaseHeight": 6.2, "TopHeight": 9.1, "Storeys": null, "StoreysInBasement": null, "DateStamp": 1446393600000}}, {"type": "Feature", "id": 83168, "geometry": {"type": "Polygon", "coordinates": [[[839524.9959000004, 828104.7100000009], [839529.7203000011, 828105.8765000012], [839528.4272000007, 828111.2180000022], [839523.657300001, 828110.0221000016], [839524.9959000004, 828104.7100000009]]]}, "properties": {"OBJECTID": 83168, "Shape__Length": 20.75776562106185, "Shape__Area": 26.841400645518053, "GeoRefNo": "3952728108", "DateCreate": 1431532800000, "BuildingBlockType": "Temporary Structure", "BuildingCSUID": "3952728108T20150514", "BuildingID": 1810141614, "Status": "Active", "BuildingNameEN": null, "BuildingNameTC": null, "BaseHeight": 6.2, "TopHeight": 9.1, "Storeys": null, "StoreysInBasement": null, "DateStamp": 1446480000000}}, {"type": "Feature", "id": 83169, "geometry": {"type": "Polygon", "coordinates": [[[839576.6602700008, 828110.5943000019], [839575.4920300012, 828115.1852200013], [839563.8383000009, 828112.3233000021], [839564.9839000013, 828107.6455000024], [839576.6602700008, 828110.5943000019]]]}, "properties": {"OBJECTID": 83169, "Shape__Length": 33.59623188896327, "Shape__Area": 57.42131020294774, "GeoRefNo": "3957028111", "DateCreate": 1430150400000, "BuildingBlockType": "Temporary Structure", "BuildingCSUID": "3957028111T20150428", "BuildingID": 1810141627, "Status": "Active", "BuildingNameEN": null, "BuildingNameTC": null, "BaseHeight": 6.5, "TopHeight": 9.4, "Storeys": null, "StoreysInBasement": null, "DateStamp": 1446480000000}}, {"type": "Feature", "id": 83171, "geometry": {"type": "Polygon", "coordinates": [[[839551.5351000009, 828103.6144000012], [839550.2880000006, 828108.5770000014], [839532.5825000005, 828104.0800000019], [839533.781200001, 828099.1557000019], [839551.5351000009, 828103.6144000012]]]}, "properties": {"OBJECTID": 83171, "Shape__Length": 46.75788294138673, "Shape__Area": 93.12184823366918, "GeoRefNo": "3954228104", "DateCreate": 1430150400000, "BuildingBlockType": "Temporary Structure", "BuildingCSUID": "3954228104T20150428", "BuildingID": 1810141628, "Status": "Active", "BuildingNameEN": null, "BuildingNameTC": null, "BaseHeight": 6.2, "TopHeight": 9.1, "Storeys": null, "StoreysInBasement": null, "DateStamp": 1446480000000}}, {"type": "Feature", "id": 83172, "geometry": {"type": "Polygon", "coordinates": [[[839561.7091500005, 828112.6523400024], [839560.1982500004, 828118.4858400021], [839555.4760000007, 828117.2511000019], [839556.9869000008, 828111.4176000021], [839561.7091500005, 828112.6523400024]]]}, "properties": {"OBJECTID": 83172, "Shape__Length": 21.813991318305774, "Shape__Area": 29.412814038042566, "GeoRefNo": "3955928115", "DateCreate": 1430150400000, "BuildingBlockType": "Temporary Structure", "BuildingCSUID": "3955928115T20150428", "BuildingID": 1810141630, "Status": "Active", "BuildingNameEN": null, "BuildingNameTC": null, "BaseHeight": 6.5, "TopHeight": 9.4, "Storeys": null, "StoreysInBasement": null, "DateStamp": 1446480000000}}, {"type": "Feature", "id": 83227, "geometry": {"type": "Polygon", "coordinates": [[[839543.8447000012, 828127.6569000017], [839548.7804000005, 828133.1637700014], [839551.9876000006, 828136.7421000022], [839548.3516000006, 828139.8987000026], [839540.2098000012, 828130.8621000014], [839543.8447000012, 828127.6569000017]]]}, "properties": {"OBJECTID": 83227, "Shape__Length": 34.02500195537466, "Shape__Area": 58.8404149807286, "GeoRefNo": "3954628134", "DateCreate": 1430928000000, "BuildingBlockType": "Temporary Structure", "BuildingCSUID": "3954628134T20150507", "BuildingID": 1810141983, "Status": "Active", "BuildingNameEN": null, "BuildingNameTC": null, "BaseHeight": 6.2, "TopHeight": 9.2, "Storeys": null, "StoreysInBasement": null, "DateStamp": 1446480000000}}, {"type": "Feature", "id": 83228, "geometry": {"type": "Polygon", "coordinates": [[[839554.7635500012, 828142.3872500025], [839555.342290001, 828137.575720001], [839567.4666900011, 828138.9345300011], [839566.8547900012, 828143.7105300017], [839554.7635500012, 828142.3872500025]]]}, "properties": {"OBJECTID": 83228, "Shape__Length": 34.02498974640829, "Shape__Area": 58.84039466355016, "GeoRefNo": "3956128141", "DateCreate": 1431532800000, "BuildingBlockType": "Temporary Structure", "BuildingCSUID": "3956128141T20150514", "BuildingID": 1810142019, "Status": "Active", "BuildingNameEN": null, "BuildingNameTC": null, "BaseHeight": 6.4, "TopHeight": 10.4, "Storeys": null, "StoreysInBasement": null, "DateStamp": 1446393600000}}, {"type": "Feature", "id": 88448, "geometry": {"type": "Polygon", "coordinates": [[[839181.0733000012, 827943.0091400016], [839184.7691800008, 827939.6766600013], [839184.7852200009, 827939.6944600027], [839194.9167600004, 827950.9308400024], [839191.2208800009, 827954.2633100022], [839181.0733000012, 827943.0091400016]]]}, "properties": {"OBJECTID": 88448, "Shape__Length": 40.259956648329236, "Shape__Area": 75.41058201200168, "GeoRefNo": "3918827946", "DateCreate": 1195142400000, "BuildingBlockType": "Open-sided Structure", "BuildingCSUID": "3918827946T20071116", "BuildingID": 1102444237, "Status": "Active", "BuildingNameEN": null, "BuildingNameTC": null, "BaseHeight": null, "TopHeight": null, "Storeys": null, "StoreysInBasement": null, "DateStamp": 1286294400000}}, {"type": "Feature", "id": 88460, "geometry": {"type": "Polygon", "coordinates": [[[839628.5485200007, 827909.8576800022], [839635.3465600004, 827917.3678400014], [839629.407660001, 827922.7436000016], [839622.6603800012, 827915.2895100024], [839626.7964500012, 827911.5813100021], [839628.5485200007, 827909.8576800022]]]}, "properties": {"OBJECTID": 88460, "Shape__Length": 36.2075941018815, "Shape__Area": 80.5277478851577, "GeoRefNo": "3962827916", "DateCreate": 1195142400000, "BuildingBlockType": "Open-sided Structure", "BuildingCSUID": "3962827916T20071116", "BuildingID": 1102444290, "Status": "Active", "BuildingNameEN": "DELTA HSE", "BuildingNameTC": "匯達大廈", "BaseHeight": null, "TopHeight": null, "Storeys": null, "StoreysInBasement": null, "DateStamp": 1286294400000}}, {"type": "Feature", "id": 88970, "geometry": {"type": "Polygon", "coordinates": [[[839083.4186000004, 827989.5938600022], [839087.4439000012, 827989.0411400013], [839088.8012100011, 827998.9260900021], [839084.7600000007, 827999.5000000019], [839083.4186000004, 827989.5938600022]]]}, "properties": {"OBJECTID": 88970, "Shape__Length": 28.11907759544136, "Shape__Area": 40.67136826813305, "GeoRefNo": "3908627994", "DateCreate": 1195142400000, "BuildingBlockType": "Open-sided Structure", "BuildingCSUID": "3908627994T20071116", "BuildingID": 1102444135, "Status": "Active", "BuildingNameEN": null, "BuildingNameTC": null, "BaseHeight": null, "TopHeight": null, "Storeys": null, "StoreysInBasement": null, "DateStamp": 1286294400000}}, {"type": "Feature", "id": 88971, "geometry": {"type": "Polygon", "coordinates": [[[839164.3080000011, 827983.5600000024], [839161.9340000004, 827985.6860000025], [839159.9110000012, 827983.4630000014], [839162.0820000004, 827981.4910000023], [839162.5430000005, 827981.3110000025], [839163.0360000012, 827981.2820000015], [839163.540000001, 827981.4180000015], [839163.9520000005, 827981.6900000013], [839164.2610000009, 827982.0770000014], [839164.4360000007, 827982.5390000027], [839164.4570000004, 827983.0600000024], [839164.3080000011, 827983.5600000024]]]}, "properties": {"OBJECTID": 88971, "Shape__Length": 13.16230885840822, "Shape__Area": 11.6944640016697, "GeoRefNo": "3916227983", "DateCreate": 1114790400000, "BuildingBlockType": "Tower", "BuildingCSUID": "3916227983T20050430", "BuildingID": 1102444160, "Status": "Active", "BuildingNameEN": null, "BuildingNameTC": null, "BaseHeight": 13.8, "TopHeight": 17.5, "Storeys": null, "StoreysInBasement": null, "DateStamp": 1286294400000}}, {"type": "Feature", "id": 89083, "geometry": {"type": "Polygon", "coordinates": [[[839499.1914100004, 828464.7574600019], [839499.8954700008, 828465.5558100026], [839500.9010900008, 828466.6961300019], [839502.4376700008, 828468.4385300018], [839498.6685900008, 828471.7624000013], [839495.332990001, 828468.1609200016], [839499.1914100004, 828464.7574600019]]]}, "properties": {"OBJECTID": 89083, "Shape__Length": 19.987195095499143, "Shape__Area": 24.956519514696016, "GeoRefNo": "3949828468", "DateCreate": 1195142400000, "BuildingBlockType": "Open-sided Structure", "BuildingCSUID": "3949828468T20071116", "BuildingID": 1102443525, "Status": "Active", "BuildingNameEN": null, "BuildingNameTC": null, "BaseHeight": null, "TopHeight": null, "Storeys": null, "StoreysInBasement": null, "DateStamp": 1286294400000}}, {"type": "Feature", "id": 89084, "geometry": {"type": "Polygon", "coordinates": [[[839149.4861800009, 828447.7772700023], [839149.957870001, 828447.7831500024], [839150.5128200008, 828440.3721400015], [839163.4747000011, 828441.1128500011], [839161.4253900005, 828468.4493600018], [839148.2075300012, 828467.6984300017], [839149.4861800009, 828447.7772700023]]]}, "properties": {"OBJECTID": 89084, "Shape__Length": 81.50105580958599, "Shape__Area": 363.1305107099375, "GeoRefNo": "3915528456", "DateCreate": 1183996800000, "BuildingBlockType": "Tower", "BuildingCSUID": "3915528456T20070710", "BuildingID": 1102443531, "Status": "Active", "BuildingNameEN": "HONG KONG SPORTS INSTITUTE", "BuildingNameTC": "香港體育學院", "BaseHeight": 6.6, "TopHeight": 13.6, "Storeys": null, "StoreysInBasement": null, "DateStamp": 1286294400000}}, {"type": "Feature", "id": 89433, "geometry": {"type": "Polygon", "coordinates": [[[839135.3560000006, 827928.3180000018], [839140.4530000007, 827933.9770000018], [839145.603000001, 827929.188000001], [839147.216000001, 827930.8550000023], [839148.7810000004, 827929.3440000024], [839150.6510000005, 827931.467000002], [839143.5300000012, 827937.8960000016], [839145.1420000009, 827939.4870000016], [839152.1360000009, 827933.1340000015], [839154.1080000009, 827935.2810000014], [839152.466000001, 827936.6910000015], [839153.9260000009, 827938.3330000024], [839148.2700000005, 827943.4310000017], [839153.4690000005, 827949.1900000013], [839151.8780000005, 827950.6000000015], [839152.7230000012, 827951.4580000024], [839150.5010000011, 827953.5070000011], [839144.4060000004, 827946.8630000018], [839142.461000001, 827948.6050000023], [839146.4300000006, 827952.8740000017], [839144.1830000011, 827954.8980000019], [839143.415000001, 827954.1150000021], [839142.0770000005, 827955.3950000014], [839138.7740000011, 827951.808000002], [839133.3450000007, 827956.8280000016], [839131.8610000005, 827955.2880000025], [839130.3960000006, 827956.6450000014], [839128.5520000011, 827954.5990000013], [839135.597000001, 827948.1700000018], [839134.0100000007, 827946.5030000024], [839125.6520000007, 827954.1610000022], [839123.6810000008, 827952.0900000017], [839125.3730000006, 827950.6550000012], [839123.7860000012, 827948.9880000018], [839130.7040000008, 827942.6620000023], [839125.5820000004, 827937.0540000014], [839127.1230000006, 827935.7470000014], [839126.1500000004, 827934.6100000013], [839128.5490000006, 827932.4580000024], [839134.745000001, 827939.0500000026], [839136.4110000012, 827937.4370000027], [839130.4180000005, 827930.7930000015], [839132.7910000011, 827928.6410000026], [839133.7140000006, 827929.728000002], [839135.3560000006, 827928.3180000018]]]}, "properties": {"OBJECTID": 89433, "Shape__Length": 196.24204210894146, "Shape__Area": 499.8396134978216, "GeoRefNo": "3913927943", "DateCreate": 1114790400000, "BuildingBlockType": "Tower", "BuildingCSUID": "3913927943T20050430", "BuildingID": 1102444232, "Status": "Active", "BuildingNameEN": "Ravana Garden Block 4", "BuildingNameTC": "濱景花園第４座", "BaseHeight": 13.8, "TopHeight": 96.4, "Storeys": 27, "StoreysInBasement": null, "DateStamp": 1599580800000}}, {"type": "Feature", "id": 89435, "geometry": {"type": "Polygon", "coordinates": [[[839625.8588800011, 827950.3687300012], [839628.7700000005, 827953.6500000022], [839623.9000000004, 827966.2100000009], [839618.2974800011, 827959.9490400013], [839614.2000000011, 827955.370000001], [839614.3586900011, 827953.654190002], [839614.683650001, 827953.6624300014], [839614.9833700005, 827953.6753800027], [839615.2832600009, 827953.6832700018], [839615.5832400005, 827953.686110001], [839615.8832300007, 827953.6838800013], [839616.1831400013, 827953.6766000018], [839616.482880001, 827953.6642700024], [839616.7823700011, 827953.6468800027], [839617.081530001, 827953.6244500019], [839617.3802700005, 827953.5969800018], [839617.6785000004, 827953.5644800011], [839617.9761400009, 827953.5269500017], [839618.2731000008, 827953.484410001], [839618.5693100011, 827953.4368700013], [839618.864670001, 827953.3843500018], [839619.1591100004, 827953.3268500026], [839619.4525300004, 827953.2644000016], [839619.7448600009, 827953.1970100012], [839620.0360100009, 827953.1247000024], [839620.3259000005, 827953.0475000013], [839620.6144500012, 827952.9654200021], [839620.9015800012, 827952.8784800023], [839621.0945800012, 827952.8164800014], [839621.1871900009, 827952.7867200021], [839621.4712300012, 827952.6901600026], [839621.7535900008, 827952.5888200011], [839622.0342000006, 827952.4827300012], [839622.3129900005, 827952.3719400018], [839622.5898700012, 827952.2564500012], [839622.8647600012, 827952.1363200024], [839623.1375900004, 827952.011570001], [839623.4082700005, 827951.8822400011], [839623.676740001, 827951.7483600024], [839623.9429100007, 827951.6099700015], [839624.2067100005, 827951.4671200011], [839624.4680700004, 827951.3198500015], [839624.7269100007, 827951.1681800019], [839624.9831500007, 827951.0121800024], [839625.2367300009, 827950.8518800009], [839625.4875600012, 827950.6873200014], [839625.8588800011, 827950.3687300012]]]}, "properties": {"OBJECTID": 89435, "Shape__Length": 46.3412450907783, "Shape__Area": 114.78241324029723, "GeoRefNo": "3962227957", "DateCreate": 1114790400000, "BuildingBlockType": "Tower", "BuildingCSUID": "3962227957T20050430", "BuildingID": 1102444206, "Status": "Active", "BuildingNameEN": "DELTA HSE", "BuildingNameTC": "匯達大廈", "BaseHeight": 5, "TopHeight": 11.8, "Storeys": 2, "StoreysInBasement": null, "DateStamp": 1599580800000}}, {"type": "Feature", "id": 89437, "geometry": {"type": "Polygon", "coordinates": [[[839189.5150000006, 827990.4530000016], [839185.4510000013, 827994.472000001], [839180.381000001, 827988.9650000017], [839185.9110000012, 827983.9190000016], [839182.3510000007, 827980.0540000014], [839182.1230000006, 827979.7300000023], [839181.938000001, 827979.2990000024], [839181.8600000013, 827978.9090000018], [839181.8600000013, 827978.4760000017], [839181.949000001, 827978.0520000011], [839182.1060000006, 827977.688000001], [839182.3520000009, 827977.3310000021], [839182.6100000013, 827977.0780000016], [839188.3420000011, 827971.8280000016], [839190.3650000012, 827974.0000000019], [839190.586000001, 827974.228000002], [839190.7670000009, 827974.5210000016], [839190.9100000011, 827975.0840000026], [839190.8150000004, 827975.7090000026], [839190.6590000009, 827976.0160000026], [839190.4570000004, 827976.262000002], [839187.8050000006, 827978.6950000022], [839188.8150000004, 827979.9410000015], [839189.6190000009, 827981.3280000016], [839190.1980000008, 827982.824000001], [839190.5380000006, 827984.3910000026], [839190.6300000008, 827985.9920000024], [839190.4740000004, 827987.5880000014], [839190.1280000005, 827988.9710000027], [839189.5150000006, 827990.4530000016]]]}, "properties": {"OBJECTID": 89437, "Shape__Length": 58.79154365109653, "Shape__Area": 130.93939799081028, "GeoRefNo": "3918727987", "DateCreate": 1114790400000, "BuildingBlockType": "Tower", "BuildingCSUID": "3918727987T20050430", "BuildingID": 1102444140, "Status": "Active", "BuildingNameEN": null, "BuildingNameTC": null, "BaseHeight": 13.8, "TopHeight": 17.5, "Storeys": null, "StoreysInBasement": null, "DateStamp": 1286294400000}}, {"type": "Feature", "id": 89445, "geometry": {"type": "Polygon", "coordinates": [[[839158.9290000005, 827988.4520000014], [839158.5040000007, 827988.6490000021], [839158.012000001, 827988.7050000019], [839157.5280000009, 827988.5980000012], [839157.086000001, 827988.3230000027], [839156.7640000004, 827987.9130000025], [839156.6090000011, 827987.4700000025], [839156.6060000006, 827986.949000001], [839156.7810000004, 827986.4590000026], [839158.648000001, 827984.6410000026], [839160.6970000006, 827986.8380000014], [839158.9290000005, 827988.4520000014]]]}, "properties": {"OBJECTID": 89445, "Shape__Length": 12.01588136208688, "Shape__Area": 9.87879499758633, "GeoRefNo": "3915827987", "DateCreate": 1114790400000, "BuildingBlockType": "Tower", "BuildingCSUID": "3915827987T20050430", "BuildingID": 1102444152, "Status": "Active", "BuildingNameEN": null, "BuildingNameTC": null, "BaseHeight": 13.8, "TopHeight": 17.7, "Storeys": null, "StoreysInBasement": null, "DateStamp": 1286294400000}}, {"type": "Feature", "id": 106505, "geometry": {"type": "Polygon", "coordinates": [[[839572.1748200012, 828117.0660000015], [839576.850610001, 828117.5457500014], [839575.7538700011, 828129.6963500027], [839570.9577800008, 828129.2051400021], [839572.1748200012, 828117.0660000015]]]}, "properties": {"OBJECTID": 106505, "Shape__Length": 33.921509254946216, "Shape__Area": 58.07902259014722, "GeoRefNo": "3957428123", "DateCreate": 1431532800000, "BuildingBlockType": "Temporary Structure", "BuildingCSUID": "3957428123T20150514", "BuildingID": 1810141984, "Status": "Active", "BuildingNameEN": null, "BuildingNameTC": null, "BaseHeight": 6.5, "TopHeight": 10.1, "Storeys": null, "StoreysInBasement": null, "DateStamp": 1463932800000}}, {"type": "Feature", "id": 106871, "geometry": {"type": "Polygon", "coordinates": [[[838958.4977400005, 828392.4694300015], [838998.1658200007, 828395.020130001], [839001.0074500004, 828395.2028500009], [838997.733500001, 828446.1187000014], [838990.3163400004, 828445.6417700015], [838990.6498500006, 828440.4549000021], [838970.6910500005, 828439.1715000011], [838970.3575400012, 828444.3584000021], [838952.382340001, 828443.2025700025], [838955.6562800007, 828392.2867200021], [838958.4977400005, 828392.4694300015]]]}, "properties": {"OBJECTID": 106871, "Shape__Length": 203.32684212732585, "Shape__Area": 2214.6884325719766, "GeoRefNo": "3897728419", "DateCreate": 1344182400000, "BuildingBlockType": "Open-sided Structure", "BuildingCSUID": "3897728419T20120806", "BuildingID": 1810087516, "Status": "Active", "BuildingNameEN": "HONG KONG SPORTS INSTITUTE", "BuildingNameTC": "香港體育學院", "BaseHeight": 6, "TopHeight": null, "Storeys": null, "StoreysInBasement": null, "DateStamp": 1345564800000}}, {"type": "Feature", "id": 110867, "geometry": {"type": "Polygon", "coordinates": [[[839586.3082500007, 828049.6472900026], [839592.3800000008, 828051.1500000022], [839589.8000000007, 828062.1700000018], [839577.9300000006, 828109.9700000025], [839574.2772600008, 828109.062930001], [839574.5727400007, 828107.8522700015], [839563.6045900006, 828105.031440001], [839563.9064800004, 828103.8658100013], [839562.4305700008, 828103.4968300015], [839562.1203000005, 828104.6289200019], [839555.790000001, 828102.9900000021], [839556.5100000007, 828100.040000001], [839564.4275900004, 828101.972430002], [839574.0778800007, 828062.4330600016], [839580.3925200012, 828063.9742600024], [839580.6521100011, 828062.9106600024], [839581.4120800011, 828059.7968800012], [839583.6950700004, 828060.3540800009], [839586.3082500007, 828049.6472900026]]]}, "properties": {"OBJECTID": 110867, "Shape__Length": 169.6555992701551, "Shape__Area": 799.0292459835192, "GeoRefNo": "3957628083", "DateCreate": 1141747200000, "BuildingBlockType": "Tower", "BuildingCSUID": "3957628083T20060308", "BuildingID": 1102443946, "Status": "Active", "BuildingNameEN": "On Sum Street Substation", "BuildingNameTC": "安心街變電站", "BaseHeight": 7.1, "TopHeight": 24.8, "Storeys": 2, "StoreysInBasement": null, "DateStamp": 1599580800000}}, {"type": "Feature", "id": 113699, "geometry": {"type": "Polygon", "coordinates": [[[839580.6521100011, 828062.9106600024], [839580.3925200012, 828063.9742600024], [839574.0778800007, 828062.4330600016], [839564.4275900004, 828101.972430002], [839556.5100000007, 828100.040000001], [839558.2965900004, 828093.1796900015], [839540.6307300013, 828088.6006800011], [839540.4226300009, 828089.3602300026], [839539.3841900006, 828089.075720001], [839540.0694600008, 828088.4391300026], [839542.9283200009, 828085.7833700012], [839545.3922100011, 828083.4945100024], [839564.0011000009, 828066.2076100018], [839566.1850500004, 828064.1788100023], [839567.1332900012, 828065.2126100026], [839568.508390001, 828063.9513100013], [839567.5790100005, 828062.8512300011], [839570.6611400004, 828059.9492900018], [839571.5336200008, 828061.0019500013], [839574.1984700011, 828058.5362500027], [839578.8453700012, 828059.7691000011], [839578.2540600011, 828062.2720300015], [839580.6521100011, 828062.9106600024]]]}, "properties": {"OBJECTID": 113699, "Shape__Length": 144.02958730895418, "Shape__Area": 617.7178518753649, "GeoRefNo": "3956028085", "DateCreate": 1461168000000, "BuildingBlockType": "Podium", "BuildingCSUID": "3956028085P20160421", "BuildingID": 1810150818, "Status": "Active", "BuildingNameEN": null, "BuildingNameTC": null, "BaseHeight": 6.7, "TopHeight": 18.8, "Storeys": null, "StoreysInBasement": null, "DateStamp": 1462896000000}}, {"type": "Feature", "id": 128919, "geometry": {"type": "Polygon", "coordinates": [[[839277.6490000011, 828070.4510000013], [839282.188000001, 828072.7330000009], [839286.3120000008, 828077.3060000017], [839281.614000001, 828081.4820000026], [839276.4920000006, 828075.8480000012], [839275.6580000008, 828076.4900000021], [839274.2750000004, 828074.9230000023], [839274.3680000007, 828073.6520000026], [839277.6490000011, 828070.4510000013]]]}, "properties": {"OBJECTID": 128919, "Shape__Length": 34.138935880165384, "Shape__Area": 66.49596250938009, "GeoRefNo": "3928128076", "DateCreate": 1114790400000, "BuildingBlockType": "Tower", "BuildingCSUID": "3928128076T20050430", "BuildingID": 1102443983, "Status": "Active", "BuildingNameEN": "LEUNG KUI KAU LUTHERAN PRIMARY SCHOOL", "BuildingNameTC": "路德會梁鉅鏐小學", "BaseHeight": 5.8, "TopHeight": 10.5, "Storeys": null, "StoreysInBasement": null, "DateStamp": 1114790400000}}], "exceededTransferLimit": true, "properties": {"exceededTransferLimit": true}}